{
"type": "FeatureCollection",
"name": "canal_1884",
"crs": { "type": "name", "properties": { "name": "urn:ogc:def:crs:OGC:1.3:CRS84" } },
"features": [
{ "type": "Feature", "properties": { "id": 1 }, "geometry": { "type": "MultiLineString", "coordinates": [ [ [ -76.95489299830453, -12.023364632384961 ], [ -76.958022587454707, -12.029996575423754 ], [ -76.961152176604898, -12.034587824782538 ], [ -76.964803363946785, -12.039178995709261 ], [ -76.97210573863056, -12.043259970666069 ], [ -76.972627336822242, -12.053462136707962 ], [ -76.974713729589041, -12.0575428945328 ], [ -76.971584140438864, -12.062133672877177 ], [ -76.972627336822242, -12.069274727393408 ], [ -76.978364916930929, -12.074375364114927 ], [ -76.980451309697713, -12.082026137065123 ], [ -76.984624095231283, -12.086106459900051 ], [ -76.9861888898064, -12.091206775943951 ], [ -76.9861888898064, -12.095796977229009 ], [ -77.003923228324126, -12.115686938444192 ], [ -77.0054880228992, -12.119256774665791 ], [ -77.001836835557327, -12.125376382779731 ], [ -77.002880031940734, -12.134045587214516 ], [ -77.000793639173935, -12.139654922173047 ], [ -76.995056059065249, -12.150873237663385 ], [ -76.995056059065249, -12.159541612113321 ] ] ] } },
{ "type": "Feature", "properties": { "id": 2 }, "geometry": { "type": "MultiLineString", "coordinates": [ [ [ -77.0054880228992, -12.118746800986498 ], [ -77.008617612049392, -12.123846493913332 ], [ -77.008617612049392, -12.128946089335518 ], [ -77.011225603007887, -12.131495850470323 ], [ -77.010182406624494, -12.137105239105159 ], [ -77.007574415666014, -12.142204580834916 ], [ -77.008096013857696, -12.149853410336231 ], [ -77.009660808432784, -12.155462412265253 ] ] ] } }
]
}
