{
"type": "FeatureCollection",
"name": "canal_2020",
"crs": { "type": "name", "properties": { "name": "urn:ogc:def:crs:OGC:1.3:CRS84" } },
"features": [
{ "type": "Feature", "properties": { "id": 1 }, "geometry": { "type": "MultiLineString", "coordinates": [ [ [ -76.945389949915224, -12.022281101001026 ], [ -76.951388329119737, -12.023046336625786 ], [ -76.953996320078218, -12.024066647406132 ], [ -76.957386708324265, -12.024066647406132 ], [ -76.961037895666138, -12.02942321550351 ], [ -76.962081092049544, -12.031463784807084 ], [ -76.962602690241241, -12.033249270242001 ], [ -76.963906685720474, -12.033759406759325 ], [ -76.965210681199721, -12.034779676889228 ], [ -76.96677547577481, -12.034779676889228 ], [ -76.967557873062361, -12.037840464038224 ], [ -76.967036274870679, -12.040391093361137 ], [ -76.9719914576918, -12.042431579382448 ], [ -76.973817051362744, -12.042686639045163 ], [ -76.97433864955444, -12.043451816579918 ], [ -76.973034654075207, -12.045747336102593 ], [ -76.973556252266889, -12.049828211239143 ], [ -76.973556252266889, -12.051613574602364 ], [ -76.9719914576918, -12.055694360543285 ], [ -76.973295453171033, -12.055949407603773 ], [ -76.972513055883482, -12.058754909264515 ], [ -76.972513055883482, -12.06079525567667 ], [ -76.971730658595945, -12.061815423061226 ], [ -76.973295453171033, -12.063090626833626 ], [ -76.970948261308394, -12.066406128254599 ], [ -76.970948261308394, -12.068956486055852 ], [ -76.973817051362744, -12.071251787324188 ], [ -76.973817051362744, -12.073419553799615 ], [ -76.97668584141708, -12.075459788574697 ], [ -76.977989836896327, -12.076734927416746 ], [ -76.979815430567257, -12.078520111594885 ], [ -76.982684220621607, -12.081580399636746 ], [ -76.984770613388378, -12.083365551504663 ], [ -76.987117805251017, -12.08642578414713 ], [ -76.988421800730293, -12.09076105380904 ], [ -76.989986595305382, -12.093311179611792 ], [ -76.990768992592905, -12.095606272042115 ], [ -76.99102979168876, -12.097901344770971 ], [ -76.99102979168876, -12.100706406901587 ], [ -76.993116184455545, -12.105551444866984 ], [ -76.995202577222344, -12.11014139977722 ], [ -76.997549769084983, -12.116006227347212 ], [ -76.999636161851782, -12.120596002511567 ], [ -77.001461755522726, -12.123655808756824 ], [ -77.003808947385366, -12.125950640406094 ], [ -77.005634541056295, -12.130795220143556 ], [ -77.005634541056295, -12.132580043117486 ], [ -77.004591344672917, -12.134619826166286 ], [ -77.007460134727239, -12.138444377296866 ], [ -77.009546527494038, -12.140994047546917 ], [ -77.010328924781589, -12.145073469175205 ] ] ] } },
{ "type": "Feature", "properties": { "id": 2 }, "geometry": { "type": "MultiLineString", "coordinates": [ [ [ -77.010198525233662, -12.144818507154447 ], [ -77.009155328850255, -12.147113156550972 ], [ -77.009937726137807, -12.150172658309728 ], [ -77.008633730658573, -12.150682571850117 ], [ -77.008894529754414, -12.154251939272646 ], [ -77.00941612794611, -12.156036605026047 ], [ -77.008633730658573, -12.158331157685577 ], [ -77.009676927041951, -12.159860848460232 ], [ -77.008372931562704, -12.160880637421233 ], [ -77.010720123425344, -12.163939980834741 ], [ -77.008894529754414, -12.165724581565984 ], [ -77.00941612794611, -12.168273990394674 ], [ -77.007851333371022, -12.169038808273791 ], [ -77.008372931562704, -12.171588185303465 ], [ -77.005243342412527, -12.174647405443107 ], [ -77.006286538795933, -12.177706590342938 ], [ -77.006286538795933, -12.179491098590589 ], [ -77.007851333371022, -12.181275594842434 ], [ -77.007590534275167, -12.184334703360809 ], [ -77.005243342412527, -12.185099474980392 ], [ -77.006286538795933, -12.186883933520392 ], [ -77.005504141508382, -12.19096265082373 ], [ -77.006286538795933, -12.192237237117935 ], [ -77.006025739700064, -12.195296219227483 ], [ -77.007590534275167, -12.197590432647145 ], [ -77.009155328850255, -12.19708060915873 ], [ -77.013328114383839, -12.19427656244566 ], [ -77.015675306246479, -12.19708060915873 ], [ -77.018544096300815, -12.200139535379217 ], [ -77.020369689971758, -12.198864987077906 ], [ -77.02349927912195, -12.198864987077906 ], [ -77.023760078217791, -12.199884626209338 ], [ -77.026628868272141, -12.200139535379217 ], [ -77.02845446194307, -12.201668985249068 ], [ -77.028976060134767, -12.203453332272485 ] ] ] } }
]
}
