{
"type": "FeatureCollection",
"name": "canal_1873",
"crs": { "type": "name", "properties": { "name": "urn:ogc:def:crs:OGC:1.3:CRS84" } },
"features": [
{ "type": "Feature", "properties": { "id": 1 }, "geometry": { "type": "MultiLineString", "coordinates": [ [ [ -76.94618019909872, -12.04621235609925 ], [ -76.950959278608821, -12.048180282452631 ], [ -76.955486827618373, -12.057035772483834 ], [ -76.957499071622607, -12.061217430058885 ], [ -76.958505193624745, -12.068104723900243 ], [ -76.961020498630049, -12.07400797774865 ], [ -76.962781212133777, -12.077205519265958 ], [ -76.96705723064278, -12.083846445023116 ], [ -76.971081718651277, -12.088519590299921 ], [ -76.978124572666147, -12.094668341292072 ], [ -76.980388347170916, -12.097127802102381 ], [ -76.984161304678878, -12.103768233254263 ], [ -76.986173548683126, -12.110408499367511 ], [ -76.999756195711797, -12.126639565654765 ], [ -77.001516909215511, -12.129344647356278 ], [ -77.003529153219759, -12.14606636108946 ] ] ] } }
]
}
