{
"type": "FeatureCollection",
"name": "canal_1898",
"crs": { "type": "name", "properties": { "name": "urn:ogc:def:crs:OGC:1.3:CRS84" } },
"features": [
{ "type": "Feature", "properties": { "id": 1 }, "geometry": { "type": "MultiLineString", "coordinates": [ [ [ -76.905185824544859, -12.005234361663717 ], [ -76.912324916316464, -12.012653643714289 ], [ -76.916340655437963, -12.016144999833401 ], [ -76.919464008088042, -12.020945540555886 ], [ -76.923033553973838, -12.02880078607488 ], [ -76.927495486331082, -12.034910262837988 ], [ -76.933295998395479, -12.040583224048076 ], [ -76.938204123988456, -12.045383328422213 ], [ -76.945789408995751, -12.054983279710655 ], [ -76.948912761645815, -12.059783126560653 ], [ -76.949805148117264, -12.067200902709466 ], [ -76.95025134135301, -12.081163218431634 ], [ -76.952482307531611, -12.099051371110045 ], [ -76.954713273710254, -12.10908566443986 ], [ -76.960513785774651, -12.117374578926183 ], [ -76.967206684310511, -12.12784441869192 ], [ -76.97345338961064, -12.134387859800775 ], [ -76.978807708439348, -12.140494926543465 ], [ -76.981931061089426, -12.142675987876773 ], [ -76.983715834032296, -12.148346663733548 ], [ -76.984608220503745, -12.154453410314842 ] ] ] } },
{ "type": "Feature", "properties": { "id": 2 }, "geometry": { "type": "MultiLineString", "coordinates": [ [ [ -76.975684355789269, -12.137441410671496 ], [ -76.976576742260718, -12.142239777039114 ], [ -76.972561003139205, -12.14616564885223 ], [ -76.972561003139205, -12.152272445481529 ] ] ] } },
{ "type": "Feature", "properties": { "id": 3 }, "geometry": { "type": "MultiLineString", "coordinates": [ [ [ -76.984162027268027, -12.147910462186914 ], [ -76.988177766389541, -12.151400054542473 ], [ -76.98907015286099, -12.155761980632615 ] ] ] } }
]
}
